 2017  114  4 7  0.0 L                       DOM  0                            1
 ACTION:ARG 18-03-02 17:06 OP:JMLC STATUS:               ID:20170114040700 L   I
 2017-01-14-0407-00S.MAN___150                                                 6
 STAT SP IPHASW D HRMM SECON CODA AMPLIT PERI AZIMU VELO AIN AR TRES W  DIS CAZ7
                                                                                
 2017  1 6 2248 45.5 L  19.943 -71.786  0.0  DOM  3 0.5 1.5LDOM 2.7CDOM 1.9WDOM1
 SPEC AVERAGE  MO 11.9 ST  7.4 OM  2.2 f0 13.3 R0.0988 AL 0.00 WI 20.0 MW  1.9 3
 SPEC SD       MO  0.1 ST  5.5 OM  1.0 f0 3.78 R0.0351 AL      WI      MW  0.1 3
 GAP=300        1.18      10.2     7.3999.9 -0.2799E+02  0.1390E+03 -0.7215E+04E
 SPEC SDDRBH Z MO 11.8 ST0.827 OM  0.8 f0 7.98 R0.1484 AL-0.00 WI 20.0 MW  1.8 3
 SPEC SDDRBH Z T224917 K 0.020 GD  109 VS 3.20 DE 2.60 Q0400.0 QA 0.70 Q1 1.00 3
 SPEC MCDRBH Z MO 12.1 ST 14.2 OM  2.0 f0 16.0 R0.0740 AL-0.00 WI 20.0 MW  2.0 3
 SPEC MCDRBH Z T224848 K 0.020 GD 14.7 VS 3.20 DE 2.60 Q0400.0 QA 0.70 Q1 1.00 3
 SPEC REDRBH Z MO 11.8 ST  7.2 OM  1.0 f0 16.0 R0.0740 AL-0.00 WI 20.0 MW  1.8 3
 SPEC REDRBH Z T2249 4 K 0.020 GD 74.3 VS 3.20 DE 2.60 Q0400.0 QA 0.70 Q1 1.00 3
 2017-01-06-2248-00S.MAN___095                                                 6
 ACTION:UP  18-03-02 17:06 OP:JMLC STATUS:               ID:20170106224845 L   I
 OLDACT:ARG 17-01-06 23:05 OP:jmlc STATUS:               ID:20170106224800     3
 STAT SP IPHASW D HRMM SECON CODA AMPLIT PERI AZIMU VELO AIN AR TRES W  DIS CAZ7
 MCDR BZ EPg      2248 47.35   31                         90   -0.5310 14.7 113 
 MCDR BN ESg      2248 49.82                              90    0.1910 14.7 113 
 MCDR BZ  IAML    2248 49.97       132.1 0.15                          14.7 113 
 REDR BZ EPg      2248 57.22   38                         91   -0.2810 74.3 173 
 REDR BN ESg      2249  6.30                              91   -0.0710 74.3 173 
 REDR BZ  IAML    2249  7.53        17.0 0.20                          74.3 173 
 SDDR BZ EPg      2249  5.55   34                         90    0.9010  119 154 
 SDDR BN ESg      2249 18.61                              90   -0.2110  119 154 
 SDDR BZ  IAML    2249 35.04        16.9 1.85                           119 154 
                                                                                
 2017  1 7 0857 52.1 L  18.994 -67.684 12.1  DOM  3 0.5 3.3LDOM 3.6CDOM 3.1WDOM1
 SPEC AVERAGE  MO 13.7 ST151.2 OM  5.2 f0 12.4 R0.1113 AL 0.00 WI 20.0 MW  3.1 3
 SPEC SD       MO  0.0 ST0.000 OM  3.0 f00.000 R0.0000 AL      WI      MW  0.0 3
 GAP=201        1.31      21.4     7.5999.9  0.1440E+03  0.1188E+05 -0.1650E+05E
 SPEC NADRBH Z MO 13.7 ST151.2 OM  2.2 f0 12.4 R0.1113 AL-0.00 WI 20.0 MW  3.1 3
 SPEC NADRBH Z T 85853 K 0.020 GD  194 VS 3.73 DE 2.83 Q0400.0 QA 0.70 Q1 1.00 3
 2017-01-07-0856-00S.MAN___095                                                 6
 OLDACT:ARG 17-01-07 21:39 OP:jmlc STATUS:               ID:20170107085600     3
 ACTION:UP  18-03-02 17:06 OP:JMLC STATUS:               ID:20170107085752 L   I
 OLDACT:UP  17-01-07 21:47 OP:JMLC STATUS:               ID:20170107085600     3
 OLDACT:UP  17-01-07 21:46 OP:JMLC STATUS:               ID:20170107085600     3
 STAT SP IPHASW D HRMM SECON CODA AMPLIT PERI AZIMU VELO AIN AR TRES W  DIS CAZ7
 SJG  BZ EPg    C  858 22.21   53                         90    0.7510  189 121 
 SJG  BN ESg       858 42.66                              90   -0.5210  189 121 
 NADR BZ EPg       858 27.18   96                         90   -0.7410  232 280 
 NADR BN ESg       858 54.62                              90    0.2110  232 280 
 NADR BZ  IAML     859  0.67       252.6 0.55                           232 280 
 ABDR BZ EPg       858 40.39   76                         90    0.3910  311 267 
 ABDR BN ESg       859 15.35                              90   -0.0910  311 267 
 ABDR BZ  IAML     859 21.35        72.4 0.60                           311 267 

 2017  1 1 0432 27.5 L  18.184 -65.547 11.8  DOM  4 0.4 2.7LDOM 3.6CDOM 2.8WDOM1
 SPEC AVERAGE  MO 13.3 ST  1.9 OM  3.7 f0 3.26 R0.4325 AL 0.00 WI 20.0 MW  2.8 3
 SPEC SD       MO  0.3 ST  1.5 OM  1.7 f00.545 R0.0722 AL      WI      MW  0.2 3
 GAP=342        0.95      12.0     7.3 35.1  0.2803E+02 -0.1437E+03 -0.2174E+03E
 SPEC AOPRBH Z MO 13.6 ST  3.4 OM  2.3 f0 3.81 R0.3603 AL-0.00 WI 20.0 MW  3.0 3
 SPEC AOPRBH Z T 433 2 K 0.020 GD  120 VS 3.71 DE 2.82 Q0400.0 QA 0.70 Q1 1.00 3
 SPEC CRPRBH Z MO 13.0 ST0.374 OM  1.7 f0 2.72 R0.5047 AL-0.00 WI 20.0 MW  2.6 3
 SPEC CRPRBH Z T 43312 K 0.020 GD  144 VS 3.71 DE 2.82 Q0400.0 QA 0.70 Q1 1.00 3
 2017-01-01-0432-00S.MAN___096                                                 6
 OLDACT:ARG 17-01-01 10:39 OP:nr   STATUS:               ID:20170101043200     3
 ACTION:UP  18-03-02 17:06 OP:JMLC STATUS:               ID:20170101043227 L   I
 OLDACT:UP  17-09-04 15:02 OP:jmlc STATUS:               ID:20170101043227     3
 STAT SP IPHASW D HRMM SECON CODA AMPLIT PERI AZIMU VELO AIN AR TRES W  DIS CAZ7
 SJG  BZ EPg    C  432 38.17   96                        101    0.0610 64.3 263 
 SJG  BE ESg    D  432 46.40                             101    0.4810 64.3 263 
 AOPR BZ EPg    D  432 48.65   73                         95    0.2210  129 278 
 AOPR BE ESg    C  433  3.53                              95   -0.3510  129 278 
 AOPR BZ  IAML     433  5.71       147.5 0.35                           129 278 
 AOPR BE  IAML     433 11.67       551.5 0.35                           129 278 
 CRPR BZ EPg    D  432 53.77   83                         94   -0.3610  164 263 
 CRPR BE ESg    D  433 13.70                              94   -0.1110  164 263 
 CRPR BE  IAML     433 17.66        84.6 1.50                           164 263 
 CRPR BZ  IAML     433 19.82        54.9 0.50                           164 263 
 AGPR BZ EPg    D  432 55.26   69                         94    0.5110  168 281 
 AGPR BE ESg    C  433 14.42                              94   -0.4610  168 281 
 AGPR BE  IAML     433 20.74        83.5 0.50                           168 281 
 AGPR BZ  IAML     433 34.54        87.1 1.60                           168 281 